[{"OBJECT_NAME":"FENGYUN 3H","OBJECT_ID":"2025-219A","EPOCH":"2026-03-09T21:29:42.222912","MEAN_MOTION":14.19932737,"ECCENTRICITY":0.00012969,"INCLINATION":98.6685,"RA_OF_ASC_NODE":11.64,"ARG_OF_PERICENTER":61.8301,"MEAN_ANOMALY":298.3007,"EPHEMERIS_TYPE":0,"CLASSIFICATION_TYPE":"U","NORAD_CAT_ID":65815,"ELEMENT_SET_NO":999,"REV_AT_EPOCH":2329,"BSTAR":7.8784575e-5,"MEAN_MOTION_DOT":1.24e-6,"MEAN_MOTION_DDOT":0},{"OBJECT_NAME":"CZ-4 DEB","OBJECT_ID":"1990-081H","EPOCH":"2026-03-09T21:35:23.435520","MEAN_MOTION":14.2198442,"ECCENTRICITY":0.00074279,"INCLINATION":98.7652,"RA_OF_ASC_NODE":57.7778,"ARG_OF_PERICENTER":232.7494,"MEAN_ANOMALY":127.3006,"EPHEMERIS_TYPE":0,"CLASSIFICATION_TYPE":"U","NORAD_CAT_ID":20798,"ELEMENT_SET_NO":999,"REV_AT_EPOCH":83058,"BSTAR":0.00054548207,"MEAN_MOTION_DOT":1.161e-5,"MEAN_MOTION_DDOT":0}]
